start=new Date('2021-12-21T00:00:00.000Z').valueOf();
sats=[{"REF_FRAME":"TEME","RA_OF_ASC_NODE":"243.8489","PERIOD":"95.591","OBJECT_TYPE":"PAYLOAD","TLE_LINE1":"1 48138U 21027AY  21354.93650236  .00004797  00000-0  34057-3 0  9994","ARG_OF_PERICENTER":"67.3349","RCS_SIZE":"LARGE","ELEMENT_SET_NO":"999","OBJECT_ID":"2021-027AY","PERIAPSIS":"545.208","ECCENTRICITY":"0.00028290","GP_ID":"192113377","NORAD_CAT_ID":"48138","BSTAR":"0.00034057000000","EPOCH":"2021-12-20T22:28:33.803904","LAUNCH_DATE":"2021-04-07","OBJECT_NAME":"STARLINK-2481","MEAN_MOTION_DDOT":"0.0000000000000","MEAN_MOTION_DOT":"0.00004797","APOAPSIS":"549.126","DECAY_DATE":null,"FILE":"3245895","SEMIMAJOR_AXIS":"6925.302","CLASSIFICATION_TYPE":"U","REV_AT_EPOCH":"4034","EPHEMERIS_TYPE":"0","SITE":"AFETR","INCLINATION":"53.0549","MEAN_ELEMENT_THEORY":"SGP4","MEAN_MOTION":"15.06415100","MEAN_ANOMALY":"292.7939","COUNTRY_CODE":"US","TLE_LINE2":"2 48138  53.0549 243.8489 0002829  67.3349 292.7939 15.06415100 40348","CENTER_NAME":"EARTH","TIME_SYSTEM":"UTC"},{"APOAPSIS":"549.005","MEAN_MOTION_DDOT":"0.0000000000000","MEAN_MOTION_DOT":"0.00001687","EPOCH":"2021-12-20T20:39:46.464480","OBJECT_NAME":"STARLINK-2482","LAUNCH_DATE":"2021-04-07","BSTAR":"0.00013215000000","GP_ID":"192113628","NORAD_CAT_ID":"48139","PERIAPSIS":"545.402","ECCENTRICITY":"0.00026010","ELEMENT_SET_NO":"999","OBJECT_ID":"2021-027AZ","RCS_SIZE":"LARGE","OBJECT_TYPE":"PAYLOAD","TLE_LINE1":"1 48139U 21027AZ  21354.86095445  .00001687  00000-0  13215-3 0  9990","ARG_OF_PERICENTER":"70.3727","RA_OF_ASC_NODE":"224.1707","PERIOD":"95.592","REF_FRAME":"TEME","TIME_SYSTEM":"UTC","CENTER_NAME":"EARTH","TLE_LINE2":"2 48139  53.0534 224.1707 0002601  70.3727 289.7543 15.06403344 40614","COUNTRY_CODE":"US","MEAN_MOTION":"15.06403344","MEAN_ANOMALY":"289.7543","MEAN_ELEMENT_THEORY":"SGP4","EPHEMERIS_TYPE":"0","SITE":"AFETR","INCLINATION":"53.0534","REV_AT_EPOCH":"4061","CLASSIFICATION_TYPE":"U","SEMIMAJOR_AXIS":"6925.338","FILE":"3245895","DECAY_DATE":null},{"ARG_OF_PERICENTER":"69.4162","TLE_LINE1":"1 48140U 21027BA  21354.89502060 -.00000044  00000-0  15967-4 0  9995","OBJECT_TYPE":"PAYLOAD","PERIOD":"95.592","RA_OF_ASC_NODE":"244.0213","RCS_SIZE":"LARGE","REF_FRAME":"TEME","MEAN_MOTION_DOT":"-0.00000044","MEAN_MOTION_DDOT":"0.0000000000000","LAUNCH_DATE":"2021-04-07","OBJECT_NAME":"STARLINK-2483","EPOCH":"2021-12-20T21:28:49.779840","APOAPSIS":"548.895","ECCENTRICITY":"0.00024320","PERIAPSIS":"545.526","ELEMENT_SET_NO":"999","OBJECT_ID":"2021-027BA","GP_ID":"192112376","BSTAR":"0.00001596700000","NORAD_CAT_ID":"48140","REV_AT_EPOCH":"4033","MEAN_ELEMENT_THEORY":"SGP4","INCLINATION":"53.0550","EPHEMERIS_TYPE":"0","SITE":"AFETR","FILE":"3245895","DECAY_DATE":null,"CLASSIFICATION_TYPE":"U","SEMIMAJOR_AXIS":"6925.346","TLE_LINE2":"2 48140  53.0550 244.0213 0002432  69.4162 290.7088 15.06400968 40335","COUNTRY_CODE":"US","TIME_SYSTEM":"UTC","CENTER_NAME":"EARTH","MEAN_MOTION":"15.06400968","MEAN_ANOMALY":"290.7088"},{"REF_FRAME":"TEME","RCS_SIZE":"LARGE","RA_OF_ASC_NODE":"243.9322","PERIOD":"95.591","TLE_LINE1":"1 48141U 21027BB  21354.91807884  .00003753  00000-0  27066-3 0  9992","OBJECT_TYPE":"PAYLOAD","ARG_OF_PERICENTER":"71.7588","NORAD_CAT_ID":"48141","GP_ID":"192112626","BSTAR":"0.00027066000000","ELEMENT_SET_NO":"999","OBJECT_ID":"2021-027BB","PERIAPSIS":"545.448","ECCENTRICITY":"0.00025010","APOAPSIS":"548.912","EPOCH":"2021-12-20T22:02:02.011776","LAUNCH_DATE":"2021-04-07","OBJECT_NAME":"STARLINK-2484","MEAN_MOTION_DDOT":"0.0000000000000","MEAN_MOTION_DOT":"0.00003753","SEMIMAJOR_AXIS":"6925.315","CLASSIFICATION_TYPE":"U","DECAY_DATE":null,"FILE":"3245895","SITE":"AFETR","EPHEMERIS_TYPE":"0","INCLINATION":"53.0537","MEAN_ELEMENT_THEORY":"SGP4","REV_AT_EPOCH":"4035","MEAN_MOTION":"15.06410915","MEAN_ANOMALY":"288.3673","CENTER_NAME":"EARTH","TIME_SYSTEM":"UTC","COUNTRY_CODE":"US","TLE_LINE2":"2 48141  53.0537 243.9322 0002501  71.7588 288.3673 15.06410915 40353"},{"LAUNCH_DATE":"2021-04-07","OBJECT_NAME":"STARLINK-2485","EPOCH":"2021-12-20T20:34:26.885568","MEAN_MOTION_DOT":"0.00001070","MEAN_MOTION_DDOT":"0.0000000000000","APOAPSIS":"549.007","OBJECT_ID":"2021-027BC","ELEMENT_SET_NO":"999","ECCENTRICITY":"0.00026190","PERIAPSIS":"545.380","NORAD_CAT_ID":"48142","GP_ID":"192112878","BSTAR":"0.00009075100000","PERIOD":"95.592","RA_OF_ASC_NODE":"224.2019","ARG_OF_PERICENTER":"68.0873","TLE_LINE1":"1 48142U 21027BC  21354.85725562  .00001070  00000-0  90751-4 0  9990","OBJECT_TYPE":"PAYLOAD","RCS_SIZE":"LARGE","REF_FRAME":"TEME","COUNTRY_CODE":"US","TLE_LINE2":"2 48142  53.0541 224.2019 0002619  68.0873 292.0395 15.06406475 40618","CENTER_NAME":"EARTH","TIME_SYSTEM":"UTC","MEAN_MOTION":"15.06406475","MEAN_ANOMALY":"292.0395","REV_AT_EPOCH":"4061","INCLINATION":"53.0541","EPHEMERIS_TYPE":"0","SITE":"AFETR","MEAN_ELEMENT_THEORY":"SGP4","DECAY_DATE":null,"FILE":"3245895","SEMIMAJOR_AXIS":"6925.329","CLASSIFICATION_TYPE":"U"},{"GP_ID":"192113129","BSTAR":"0.00011382000000","NORAD_CAT_ID":"48143","OBJECT_ID":"2021-027BD","ELEMENT_SET_NO":"999","ECCENTRICITY":"0.00024200","PERIAPSIS":"553.015","APOAPSIS":"556.371","OBJECT_NAME":"STARLINK-2486","LAUNCH_DATE":"2021-04-07","EPOCH":"2021-12-20T19:27:55.264320","MEAN_MOTION_DOT":"0.00001313","MEAN_MOTION_DDOT":"0.0000000000000","REF_FRAME":"TEME","RCS_SIZE":"LARGE","PERIOD":"95.747","RA_OF_ASC_NODE":"179.0865","ARG_OF_PERICENTER":"103.5162","TLE_LINE1":"1 48143U 21027BD  21354.81105630  .00001313  00000-0  11382-3 0  9997","OBJECT_TYPE":"PAYLOAD","MEAN_ANOMALY":"256.6095","MEAN_MOTION":"15.03962889","CENTER_NAME":"EARTH","TIME_SYSTEM":"UTC","COUNTRY_CODE":"US","TLE_LINE2":"2 48143  53.0554 179.0865 0002420 103.5162 256.6095 15.03962889 41230","SEMIMAJOR_AXIS":"6932.828","CLASSIFICATION_TYPE":"U","DECAY_DATE":null,"FILE":"3245895","INCLINATION":"53.0554","SITE":"AFETR","EPHEMERIS_TYPE":"0","MEAN_ELEMENT_THEORY":"SGP4","REV_AT_EPOCH":"4123"},{"REF_FRAME":"TEME","RCS_SIZE":"LARGE","OBJECT_TYPE":"PAYLOAD","TLE_LINE1":"1 48144U 21027BE  21354.86464382  .00008469  00000-0  58652-3 0  9995","ARG_OF_PERICENTER":"70.7503","RA_OF_ASC_NODE":"224.1675","PERIOD":"95.591","GP_ID":"192111877","BSTAR":"0.00058652000000","NORAD_CAT_ID":"48144","PERIAPSIS":"545.501","ECCENTRICITY":"0.00024110","ELEMENT_SET_NO":"999","OBJECT_ID":"2021-027BE","APOAPSIS":"548.841","MEAN_MOTION_DDOT":"0.0000000000000","MEAN_MOTION_DOT":"0.00008469","EPOCH":"2021-12-20T20:45:05.226048","OBJECT_NAME":"STARLINK-2487","LAUNCH_DATE":"2021-04-07","CLASSIFICATION_TYPE":"U","SEMIMAJOR_AXIS":"6925.306","FILE":"3245895","DECAY_DATE":null,"MEAN_ELEMENT_THEORY":"SGP4","SITE":"AFETR","EPHEMERIS_TYPE":"0","INCLINATION":"53.0525","REV_AT_EPOCH":"4060","MEAN_MOTION":"15.06413908","MEAN_ANOMALY":"289.3747","TIME_SYSTEM":"UTC","CENTER_NAME":"EARTH","TLE_LINE2":"2 48144  53.0525 224.1675 0002411  70.7503 289.3747 15.06413908 40607","COUNTRY_CODE":"US"},{"MEAN_ANOMALY":"286.7987","MEAN_MOTION":"15.06395990","TIME_SYSTEM":"UTC","CENTER_NAME":"EARTH","TLE_LINE2":"2 48145  53.0552 224.1370 0002253  73.3249 286.7987 15.06395990 40618","COUNTRY_CODE":"US","CLASSIFICATION_TYPE":"U","SEMIMAJOR_AXIS":"6925.361","FILE":"3245895","DECAY_DATE":null,"MEAN_ELEMENT_THEORY":"SGP4","INCLINATION":"53.0552","SITE":"AFETR","EPHEMERIS_TYPE":"0","REV_AT_EPOCH":"4061","NORAD_CAT_ID":"48145","GP_ID":"192112127","BSTAR":"-0.00002315700000","ECCENTRICITY":"0.00022530","PERIAPSIS":"545.666","ELEMENT_SET_NO":"999","OBJECT_ID":"2021-027BF","APOAPSIS":"548.786","MEAN_MOTION_DOT":"-0.00000627","MEAN_MOTION_DDOT":"0.0000000000000","LAUNCH_DATE":"2021-04-07","OBJECT_NAME":"STARLINK-2488","EPOCH":"2021-12-20T20:50:23.165952","REF_FRAME":"TEME","RCS_SIZE":"LARGE","ARG_OF_PERICENTER":"73.3249","OBJECT_TYPE":"PAYLOAD","TLE_LINE1":"1 48145U 21027BF  21354.86832368 -.00000627  00000-0 -23157-4 0  9992","PERIOD":"95.592","RA_OF_ASC_NODE":"224.1370"},{"OBJECT_ID":"2021-027BG","ELEMENT_SET_NO":"999","PERIAPSIS":"545.397","ECCENTRICITY":"0.00026170","BSTAR":"0.00013804000000","GP_ID":"192113378","NORAD_CAT_ID":"48146","EPOCH":"2021-12-20T22:23:15.409536","OBJECT_NAME":"STARLINK-2489","LAUNCH_DATE":"2021-04-07","MEAN_MOTION_DDOT":"0.0000000000000","MEAN_MOTION_DOT":"0.00001775","APOAPSIS":"549.022","REF_FRAME":"TEME","RA_OF_ASC_NODE":"243.8537","PERIOD":"95.592","TLE_LINE1":"1 48146U 21027BG  21354.93281724  .00001775  00000-0  13804-3 0  9995","OBJECT_TYPE":"PAYLOAD","ARG_OF_PERICENTER":"65.4937","RCS_SIZE":"LARGE","MEAN_ANOMALY":"294.6325","MEAN_MOTION":"15.06401308","COUNTRY_CODE":"US","TLE_LINE2":"2 48146  53.0551 243.8537 0002617  65.4937 294.6325 15.06401308 40346","CENTER_NAME":"EARTH","TIME_SYSTEM":"UTC","DECAY_DATE":null,"FILE":"3245895","SEMIMAJOR_AXIS":"6925.345","CLASSIFICATION_TYPE":"U","REV_AT_EPOCH":"4034","SITE":"AFETR","EPHEMERIS_TYPE":"0","INCLINATION":"53.0551","MEAN_ELEMENT_THEORY":"SGP4"},{"FILE":"3245895","DECAY_DATE":null,"CLASSIFICATION_TYPE":"U","SEMIMAJOR_AXIS":"6925.336","REV_AT_EPOCH":"4027","MEAN_ELEMENT_THEORY":"SGP4","EPHEMERIS_TYPE":"0","SITE":"AFETR","INCLINATION":"53.0654","MEAN_MOTION":"15.06404091","MEAN_ANOMALY":"291.2881","TLE_LINE2":"2 48147  53.0654 248.8234 0002378  68.8362 291.2881 15.06404091 40277","COUNTRY_CODE":"US","TIME_SYSTEM":"UTC","CENTER_NAME":"EARTH","REF_FRAME":"TEME","TLE_LINE1":"1 48147U 21027BH  21354.93051743  .00000327  00000-0  40902-4 0  9994","OBJECT_TYPE":"PAYLOAD","ARG_OF_PERICENTER":"68.8362","RA_OF_ASC_NODE":"248.8234","PERIOD":"95.592","RCS_SIZE":"LARGE","PERIAPSIS":"545.554","ECCENTRICITY":"0.00023780","OBJECT_ID":"2021-027BH","ELEMENT_SET_NO":"999","NORAD_CAT_ID":"48147","GP_ID":"192113629","BSTAR":"0.00004090200000","MEAN_MOTION_DDOT":"0.0000000000000","MEAN_MOTION_DOT":"0.00000327","EPOCH":"2021-12-20T22:19:56.705952","LAUNCH_DATE":"2021-04-07","OBJECT_NAME":"STARLINK-2490","APOAPSIS":"548.848"}];
